organisation_id,organisation_name,city,country,country_code,timezone,address,contact
1,Skalith,Poiares,Portugal,PT,Europe/Lisbon,112 Commercial Park,272-571-4348
2,Fanoodle,Terjan,Indonesia,ID,Asia/Jakarta,596 Comanche Court,442-503-3643
3,Topicstorm,Yambrasbamba,Peru,PE,America/Lima,2 Myrtle Alley,255-810-4190
4,Photobug,Parang,Philippines,PH,Asia/Manila,5836 Dakota Street,356-775-7513
5,Voomm,Kostomuksha,Russia,RU,Europe/Moscow,240 Prentice Lane,590-525-9560
6,Dabtype,Milano,Italy,IT,Europe/Rome,6 Forest Junction,973-729-2589
7,Devpoint,Yevlakh,Azerbaijan,AZ,Asia/Baku,9 Burning Wood Terrace,102-991-8928
8,Browsezoom,Vinhas,Portugal,PT,Europe/Lisbon,86212 Northland Road,220-689-5250
9,Demimbu,Belo,Cameroon,CM,Africa/Douala,1838 Gateway Point,748-884-6459
10,Katz,Xidianzi,China,CN,Asia/Harbin,04 Killdeer Point,319-820-0327
11,Pixonyx,Capitán Bermúdez,Argentina,AR,America/Argentina/Cordoba,6000 Jay Terrace,427-205-5113
12,Gigaclub,Banyo,Cameroon,CM,Africa/Douala,3803 Mayfield Place,750-485-9858
13,Riffpedia,Nashville,United States,US,America/Chicago,0305 Fallview Street,615-912-2532
14,Thoughtbeat,Sanshilipu,China,CN,Asia/Chongqing,4463 Nelson Pass,248-964-1239
15,Skivee,Tabio,Philippines,PH,Asia/Manila,256 Magdeline Court,689-689-7068
16,Dabfeed,Cabeço de Vide,Portugal,PT,Europe/Lisbon,61769 Hovde Court,780-320-0278
17,Fatz,Åtvidaberg,Sweden,SE,Europe/Stockholm,03 Butterfield Crossing,569-758-6280
18,Jaxnation,Oslo,Norway,NO,Europe/Oslo,71 Monument Road,857-828-2683
19,Ainyx,Bangued,Philippines,PH,Asia/Manila,6856 Mendota Street,514-275-5017
20,Livetube,Bardiyā,Nepal,NP,Asia/Kathmandu,79511 Sachs Drive,443-332-2536
21,Avavee,Provins,France,FR,Europe/Paris,59461 Graceland Road,432-747-3947
22,Dynava,Shiniujiang,China,CN,Asia/Chongqing,78480 Dennis Parkway,535-149-3427
23,Babbleopia,Alcains,Portugal,PT,Europe/Lisbon,24 Independence Hill,793-864-6958
24,Linkbuzz,Daba,China,CN,Asia/Chongqing,74194 Di Loreto Pass,750-105-2014
25,Jetwire,Skuratovskiy,Russia,RU,Europe/Moscow,22 Dawn Parkway,491-353-4642
26,Dablist,Onega,Russia,RU,Europe/Moscow,1462 Kropf Lane,483-454-5794
27,Oloo,Djohong,Cameroon,CM,Africa/Douala,00 Corry Drive,512-206-4779
28,Skajo,Samsan,South Korea,KR,Asia/Seoul,65558 Dwight Road,709-224-7282
29,Plajo,Al Ḩarajah,Yemen,YE,Asia/Aden,5 Monica Trail,911-966-9809
30,Roomm,Al Nashmah,Yemen,YE,Asia/Aden,2856 Sugar Way,654-447-3066
31,Eimbee,Antipolo,Philippines,PH,Asia/Manila,015 Grayhawk Hill,978-289-0254
32,Aibox,Dzerzhinsk,Russia,RU,Asia/Irkutsk,80 Westport Point,341-547-4229
33,Demizz,Qukou,China,CN,Asia/Chongqing,30 North Avenue,972-951-5317
34,Oyoba,Wilga,Poland,PL,Europe/Warsaw,1 Westridge Place,561-195-5067
35,Tagtune,Abu Dhabi,United Arab Emirates,AE,Asia/Dubai,8 2nd Trail,380-430-5782
36,Bluejam,Boston,United States,US,America/New_York,585 Monterey Road,617-749-0449
37,Layo,Sanchang,China,CN,Asia/Shanghai,0 6th Circle,699-828-6771
38,Dabtypo,Altanbulag,Mongolia,MN,Asia/Ulaanbaatar,66934 Forest Run Road,868-897-5177
39,Voolith,Yantan,China,CN,Asia/Shanghai,97703 Debs Place,882-202-5724
40,Quatz,Saint Louis,United States,US,America/Chicago,225 Stephen Circle,314-281-4258
41,Fadeo,Kloangpopot,Indonesia,ID,Asia/Makassar,7 Paget Trail,957-307-8857
42,Devify,Dahewan,China,CN,Asia/Harbin,970 Reinke Park,850-552-4200
43,Realbuzz,Granville,France,FR,Europe/Paris,0 Linden Road,994-324-4641
44,Midel,Victoriaville,Canada,CA,America/Montreal,2 Fisk Circle,910-986-2936
45,Photolily,Jaraguá do Sul,Brazil,BR,America/Sao_Paulo,40 Forest Run Way,987-426-7799
46,Bubblebox,Yershov,Russia,RU,Europe/Volgograd,74 Bellgrove Trail,928-883-1330
47,Kare,Samayac,Guatemala,GT,America/Guatemala,952 Thackeray Park,662-875-0805
48,Avaveo,Reuleuet,Indonesia,ID,Asia/Jakarta,6 Scofield Street,303-405-7393
49,Yodoo,Ekenäs,Finland,FI,Europe/Helsinki,0 Muir Park,538-966-2669
50,Fanoodles,Leskovac,Serbia,RS,Europe/Belgrade,361 Menomonie Crossing,907-598-4433
